CCSDS_OMM_VERS,COMMENT,CREATION_DATE,ORIGINATOR,OBJECT_NAME,OBJECT_ID,CENTER_NAME,REF_FRAME,TIME_SYSTEM,MEAN_ELEMENT_THEORY,EPOCH,MEAN_MOTION,ECCENTRICITY,INCLINATION,RA_OF_ASC_NODE,ARG_OF_PERICENTER,MEAN_ANOMALY,EPHEMERIS_TYPE,CLASSIFICATION_TYPE,NORAD_CAT_ID,ELEMENT_SET_NO,REV_AT_EPOCH,BSTAR,MEAN_MOTION_DOT,MEAN_MOTION_DDOT,SEMIMAJOR_AXIS,PERIOD,APOAPSIS,PERIAPSIS,OBJECT_TYPE,RCS_SIZE,COUNTRY_CODE,LAUNCH_DATE,SITE,DECAY_DATE,FILE,GP_ID,TLE_LINE0,TLE_LINE1,TLE_LINE2
2,GENERATED VIA SPACE-TRACK.ORG API,2022-11-04T14:46:13,18 SPCS,STARLINK-1098,2020-001D,EARTH,TEME,UTC,SGP4,2022-11-04T09:44:21.733440,15.06412432,0.0001218,53.0558,69.1707,53.2335,306.8766,0,U,44917,999,15577,0.00026013,3.597e-05,0,6925.31,95.591,548.019,546.332,PAYLOAD,LARGE,US,2020-01-07,AFETR,,3644703,216879305,0 STARLINK-1098,1 44917U 20001D   22308.40580710  .00003597  00000-0  26013-3 0  9997,2 44917  53.0558  69.1707 0001218  53.2335 306.8766 15.06412432155775
2,GENERATED VIA SPACE-TRACK.ORG API,2022-11-05T03:03:51,18 SPCS,STARLINK-1098,2020-001D,EARTH,TEME,UTC,SGP4,2022-11-04T17:42:03.850848,15.06404009,0.0001535,53.0546,67.6805,72.1402,287.9754,0,U,44917,999,15582,0.00010961,1.352e-05,0,6925.336,95.592,548.264,546.138,PAYLOAD,LARGE,US,2020-01-07,AFETR,,3645105,216933036,0 STARLINK-1098,1 44917U 20001D   22308.73754457  .00001352  00000-0  10961-3 0  9996,2 44917  53.0546  67.6805 0001535  72.1402 287.9754 15.06404009155824
2,GENERATED VIA SPACE-TRACK.ORG API,2022-11-04T23:06:13,18 SPCS,STARLINK-1098,2020-001D,EARTH,TEME,UTC,SGP4,2022-11-04T17:42:03.850848,15.06404009,0.0001535,53.0546,67.6805,72.1402,287.9754,0,U,44917,999,15582,0.00010961,1.352e-05,0,6925.336,95.592,548.264,546.138,PAYLOAD,LARGE,US,2020-01-07,AFETR,,3645026,216912651,0 STARLINK-1098,1 44917U 20001D   22308.73754457  .00001352  00000-0  10961-3 0  9996,2 44917  53.0546  67.6805 0001535  72.1402 287.9754 15.06404009155824
2,GENERATED VIA SPACE-TRACK.ORG API,2022-11-05T23:06:24,18 SPCS,STARLINK-1098,2020-001D,EARTH,TEME,UTC,SGP4,2022-11-05T09:37:28.553088,15.06378814,0.0001573,53.0555,64.7041,55.4382,304.6755,0,U,44917,999,15592,-0.00032195,-5.071e-05,0,6925.413,95.593,548.368,546.189,PAYLOAD,LARGE,US,2020-01-07,AFETR,,3646065,216986597,0 STARLINK-1098,1 44917U 20001D   22309.40102492 -.00005071  00000-0 -32195-3 0  9994,2 44917  53.0555  64.7041 0001573  55.4382 304.6755 15.06378814155920
2,GENERATED VIA SPACE-TRACK.ORG API,2022-11-05T18:59:02,18 SPCS,STARLINK-1098,2020-001D,EARTH,TEME,UTC,SGP4,2022-11-05T11:13:01.015968,15.06378621,0.0001524,53.0559,64.4059,53.5117,306.6012,0,U,44917,999,15593,-0.00031105,-4.909e-05,0,6925.414,95.593,548.335,546.224,PAYLOAD,LARGE,US,2020-01-07,AFETR,,3645109,216959224,0 STARLINK-1098,1 44917U 20001D   22309.46737287 -.00004909  00000-0 -31105-3 0  9995,2 44917  53.0559  64.4059 0001524  53.5117 306.6012 15.06378621155936
2,GENERATED VIA SPACE-TRACK.ORG API,2022-11-06T07:36:13,18 SPCS,STARLINK-1098,2020-001D,EARTH,TEME,UTC,SGP4,2022-11-06T03:08:24.870624,15.06384354,0.000148,53.0552,61.4267,65.0674,295.0469,0,U,44917,999,15603,-0.00019281,-3.151e-05,0,6925.397,95.593,548.286,546.237,PAYLOAD,LARGE,US,2020-01-07,AFETR,,3646707,217026672,0 STARLINK-1098,1 44917U 20001D   22310.13084341 -.00003151  00000-0 -19281-3 0  9996,2 44917  53.0552  61.4267 0001480  65.0674 295.0469 15.06384354156033
2,GENERATED VIA SPACE-TRACK.ORG API,2022-11-06T15:56:13,18 SPCS,STARLINK-1098,2020-001D,EARTH,TEME,UTC,SGP4,2022-11-06T12:41:39.183072,15.06398724,0.0001605,53.0548,59.6386,67.645,292.4709,0,U,44917,999,15609,0.00084467,0.00012322,0,6925.352,95.592,548.329,546.106,PAYLOAD,LARGE,US,2020-01-07,AFETR,,3646999,217032325,0 STARLINK-1098,1 44917U 20001D   22310.52892573  .00012322  00000-0  84467-3 0  9999,2 44917  53.0548  59.6386 0001605  67.6450 292.4709 15.06398724156098
2,GENERATED VIA SPACE-TRACK.ORG API,2022-11-07T08:26:12,18 SPCS,STARLINK-1098,2020-001D,EARTH,TEME,UTC,SGP4,2022-11-07T04:37:02.976384,15.06404598,0.0001618,53.0548,56.6598,68.1685,291.9476,0,U,44917,999,15619,0.0005744,8.285e-05,0,6925.334,95.592,548.32,546.079,PAYLOAD,LARGE,US,2020-01-07,AFETR,,3647546,217070568,0 STARLINK-1098,1 44917U 20001D   22311.19239556  .00008285  00000-0  57440-3 0  9993,2 44917  53.0548  56.6598 0001618  68.1685 291.9476 15.06404598156193
2,GENERATED VIA SPACE-TRACK.ORG API,2022-11-08T04:33:55,18 SPCS,STARLINK-1098,2020-001D,EARTH,TEME,UTC,SGP4,2022-11-07T12:34:45.067008,15.06397959,0.0001648,53.0553,55.1708,63.4571,296.6587,0,U,44917,999,15624,0.00023864,3.275e-05,0,6925.355,95.592,548.361,546.079,PAYLOAD,LARGE,US,2020-01-07,AFETR,,3648233,217103424,0 STARLINK-1098,1 44917U 20001D   22311.52413272  .00003275  00000-0  23864-3 0  9996,2 44917  53.0553  55.1708 0001648  63.4571 296.6587 15.06397959156244
2,GENERATED VIA SPACE-TRACK.ORG API,2022-11-07T15:56:12,18 SPCS,STARLINK-1098,2020-001D,EARTH,TEME,UTC,SGP4,2022-11-07T12:34:45.067008,15.06397959,0.0001648,53.0553,55.1708,63.4571,296.6587,0,U,44917,999,15624,0.00023864,3.275e-05,0,6925.355,95.592,548.361,546.079,PAYLOAD,LARGE,US,2020-01-07,AFETR,,3647881,217076723,0 STARLINK-1098,1 44917U 20001D   22311.52413272  .00003275  00000-0  23864-3 0  9996,2 44917  53.0553  55.1708 0001648  63.4571 296.6587 15.06397959156244
2,GENERATED VIA SPACE-TRACK.ORG API,2022-11-08T10:36:13,18 SPCS,STARLINK-1098,2020-001D,EARTH,TEME,UTC,SGP4,2022-11-08T07:41:12.793344,15.06421307,0.0001628,53.0551,51.5974,65.904,294.2119,0,U,44917,999,15636,0.00091884,0.00013439,0,6925.283,95.591,548.276,546.021,PAYLOAD,LARGE,US,2020-01-07,AFETR,,3648564,217143022,0 STARLINK-1098,1 44917U 20001D   22312.32028696  .00013439  00000-0  91884-3 0  9997,2 44917  53.0551  51.5974 0001628  65.9040 294.2119 15.06421307156366
2,GENERATED VIA SPACE-TRACK.ORG API,2022-11-08T17:45:43,18 SPCS,STARLINK-1098,2020-001D,EARTH,TEME,UTC,SGP4,2022-11-08T09:16:45.133536,15.06419924,0.000165,53.0552,51.2997,62.1718,297.9438,0,U,44917,999,15637,0.00080078,0.00011672,0,6925.287,95.591,548.295,546.01,PAYLOAD,LARGE,US,2020-01-07,AFETR,,3648805,217168127,0 STARLINK-1098,1 44917U 20001D   22312.38663349  .00011672  00000-0  80078-3 0  9993,2 44917  53.0552  51.2997 0001650  62.1718 297.9438 15.06419924156372
2,GENERATED VIA SPACE-TRACK.ORG API,2022-11-09T19:01:16,18 SPCS,STARLINK-1098,2020-001D,EARTH,TEME,UTC,SGP4,2022-11-09T13:56:27.888576,15.06392094,0.0001766,53.0552,45.9446,52.747,307.368,0,U,44917,999,15655,-0.00028215,-4.481e-05,0,6925.373,95.593,548.461,546.015,PAYLOAD,LARGE,US,2020-01-07,AFETR,,3649526,217235172,0 STARLINK-1098,1 44917U 20001D   22313.58087834 -.00004481  00000-0 -28215-3 0  9992,2 44917  53.0552  45.9446 0001766  52.7470 307.3680 15.06392094156552
2,GENERATED VIA SPACE-TRACK.ORG API,2022-11-09T23:26:14,18 SPCS,STARLINK-1098,2020-001D,EARTH,TEME,UTC,SGP4,2022-11-09T13:56:27.888576,15.06392094,0.0001766,53.0552,45.9446,52.747,307.368,0,U,44917,999,15655,-0.00028215,-4.481e-05,0,6925.373,95.593,548.461,546.015,PAYLOAD,LARGE,US,2020-01-07,AFETR,,3649850,217248221,0 STARLINK-1098,1 44917U 20001D   22313.58087834 -.00004481  00000-0 -28215-3 0  9992,2 44917  53.0552  45.9446 0001766  52.7470 307.3680 15.06392094156552
2,GENERATED VIA SPACE-TRACK.ORG API,2022-11-10T18:21:55,18 SPCS,STARLINK-1098,2020-001D,EARTH,TEME,UTC,SGP4,2022-11-10T12:14:01.938624,15.06381009,0.0001739,53.0549,41.7705,59.3353,300.7807,0,U,44917,999,15669,0.00020972,2.842e-05,0,6925.407,95.593,548.476,546.067,PAYLOAD,LARGE,US,2020-01-07,AFETR,,3650424,217306652,0 STARLINK-1098,1 44917U 20001D   22314.50974466  .00002842  00000-0  20972-3 0  9990,2 44917  53.0549  41.7705 0001739  59.3353 300.7807 15.06381009156690
2,GENERATED VIA SPACE-TRACK.ORG API,2022-11-11T09:06:13,18 SPCS,STARLINK-1098,2020-001D,EARTH,TEME,UTC,SGP4,2022-11-11T05:44:58.769376,15.06386229,0.0001702,53.0557,38.4938,58.9267,301.1889,0,U,44917,999,15680,0.00042348,6.029e-05,0,6925.391,95.593,548.434,546.077,PAYLOAD,LARGE,US,2020-01-07,AFETR,,3651091,217404908,0 STARLINK-1098,1 44917U 20001D   22315.23956909  .00006029  00000-0  42348-3 0  9995,2 44917  53.0557  38.4938 0001702  58.9267 301.1889 15.06386229156806
2,GENERATED VIA SPACE-TRACK.ORG API,2022-11-11T17:24:15,18 SPCS,STARLINK-1098,2020-001D,EARTH,TEME,UTC,SGP4,2022-11-11T12:07:08.143968,15.0640019,0.0001681,53.0554,37.3024,57.5319,302.5832,0,U,44917,999,15684,0.00080065,0.00011664,0,6925.348,95.592,548.377,546.049,PAYLOAD,LARGE,US,2020-01-07,AFETR,,3651496,217431139,0 STARLINK-1098,1 44917U 20001D   22315.50495537  .00011664  00000-0  80065-3 0  9999,2 44917  53.0554  37.3024 0001681  57.5319 302.5832 15.06400190156847
2,GENERATED VIA SPACE-TRACK.ORG API,2022-11-11T23:46:13,18 SPCS,STARLINK-1098,2020-001D,EARTH,TEME,UTC,SGP4,2022-11-11T12:07:08.143968,15.0640019,0.0001681,53.0554,37.3024,57.5319,302.5832,0,U,44917,999,15684,0.00080065,0.00011664,0,6925.348,95.592,548.377,546.049,PAYLOAD,LARGE,US,2020-01-07,AFETR,,3651711,217468333,0 STARLINK-1098,1 44917U 20001D   22315.50495537  .00011664  00000-0  80065-3 0  9999,2 44917  53.0554  37.3024 0001681  57.5319 302.5832 15.06400190156847
2,GENERATED VIA SPACE-TRACK.ORG API,2022-11-12T18:54:17,18 SPCS,STARLINK-1098,2020-001D,EARTH,TEME,UTC,SGP4,2022-11-12T12:00:12.605760,15.0642126,0.0001793,53.0556,32.835,48.0241,312.09,0,U,44917,999,15699,0.00055258,7.963e-05,0,6925.283,95.591,548.39,545.907,PAYLOAD,LARGE,US,2020-01-07,AFETR,,3652392,217528024,0 STARLINK-1098,1 44917U 20001D   22316.50014590  .00007963  00000-0  55258-3 0  9999,2 44917  53.0556  32.8350 0001793  48.0241 312.0900 15.06421260156993
2,GENERATED VIA SPACE-TRACK.ORG API,2022-11-13T03:35:01,18 SPCS,STARLINK-1098,2020-001D,EARTH,TEME,UTC,SGP4,2022-11-12T15:11:16.396224,15.06455026,0.0001535,53.0558,32.2392,48.5735,311.5385,0,U,44917,999,15701,0.001514,0.00022375,0,6925.18,95.589,548.108,545.982,PAYLOAD,LARGE,US,2020-01-07,AFETR,,3652635,217583602,0 STARLINK-1098,1 44917U 20001D   22316.63282866  .00022375  00000-0  15140-2 0  9995,2 44917  53.0558  32.2392 0001535  48.5735 311.5385 15.06455026157014
